{
    "links": {
        "self": "http://www.neowsapp.com/rest/v1/neo/54075576?api_key=iIulBulltgU6a56xZRHN4H3l9WmuAYTsLGpBGhQ2"
    },
    "id": "54075576",
    "neo_reference_id": "54075576",
    "name": "(2020 UH2)",
    "designation": "2020 UH2",
    "nasa_jpl_url": "http://ssd.jpl.nasa.gov/sbdb.cgi?sstr=54075576",
    "absolute_magnitude_h": 23.494,
    "estimated_diameter": {
        "kilometers": {
            "estimated_diameter_min": 0.0531808135,
            "estimated_diameter_max": 0.1189159141
        },
        "meters": {
            "estimated_diameter_min": 53.1808135262,
            "estimated_diameter_max": 118.9159141433
        },
        "miles": {
            "estimated_diameter_min": 0.0330450153,
            "estimated_diameter_max": 0.0738909005
        },
        "feet": {
            "estimated_diameter_min": 174.4777402493,
            "estimated_diameter_max": 390.1440877581
        }
    },
    "is_potentially_hazardous_asteroid": false,
    "close_approach_data": [
        {
            "close_approach_date": "2001-10-08",
            "close_approach_date_full": "2001-Oct-08 11:10",
            "epoch_date_close_approach": 1002539400000,
            "relative_velocity": {
                "kilometers_per_second": "5.4051044209",
                "kilometers_per_hour": "19458.3759151884",
                "miles_per_hour": "12090.6780790791"
            },
            "miss_distance": {
                "astronomical": "0.1761814418",
                "lunar": "68.5345808602",
                "kilometers": "26356368.426808966",
                "miles": "16377087.9247610908"
            },
            "orbiting_body": "Earth"
        },
        {
            "close_approach_date": "2020-10-05",
            "close_approach_date_full": "2020-Oct-05 01:39",
            "epoch_date_close_approach": 1601861940000,
            "relative_velocity": {
                "kilometers_per_second": "6.3230342047",
                "kilometers_per_hour": "22762.9231368513",
                "miles_per_hour": "14143.9952124507"
            },
            "miss_distance": {
                "astronomical": "0.218928126",
                "lunar": "85.163041014",
                "kilometers": "32751181.33269162",
                "miles": "20350640.408399556"
            },
            "orbiting_body": "Earth"
        },
        {
            "close_approach_date": "2039-10-01",
            "close_approach_date_full": "2039-Oct-01 07:59",
            "epoch_date_close_approach": 2201068740000,
            "relative_velocity": {
                "kilometers_per_second": "7.6600232826",
                "kilometers_per_hour": "27576.0838173915",
                "miles_per_hour": "17134.7060808675"
            },
            "miss_distance": {
                "astronomical": "0.3108976036",
                "lunar": "120.9391678004",
                "kilometers": "46509619.286664332",
                "miles": "28899737.3261065016"
            },
            "orbiting_body": "Earth"
        }
    ],
    "orbital_data": {
        "orbit_id": "2",
        "orbit_determination_date": "2020-11-14 05:24:02",
        "first_observation_date": "2020-10-16",
        "last_observation_date": "2020-11-14",
        "data_arc_in_days": 29,
        "observations_used": 13,
        "orbit_uncertainty": "7",
        "minimum_orbit_intersection": ".173641",
        "jupiter_tisserand_invariant": "4.219",
        "epoch_osculation": "2459000.5",
        "eccentricity": ".3018999356605059",
        "semi_major_axis": "1.646620676171868",
        "inclination": "9.247351958163913",
        "ascending_node_longitude": "41.33726994729632",
        "orbital_period": "771.7715650765168",
        "perihelion_distance": "1.149505999978322",
        "perihelion_argument": "322.7557946406021",
        "aphelion_distance": "2.143735352365414",
        "perihelion_time": "2459126.526735397911",
        "mean_anomaly": "301.2136611449921",
        "mean_motion": ".4664592688955935",
        "equinox": "J2000",
        "orbit_class": {
            "orbit_class_type": "AMO",
            "orbit_class_description": "Near-Earth asteroid orbits similar to that of 1221 Amor",
            "orbit_class_range": "1.017 AU < q (perihelion) < 1.3 AU"
        }
    },
    "is_sentry_object": false
}